NORAD_CAT_ID,OBJECT_NAME,OBJECT_TYPE,EPOCH,MEAN_MOTION,ECCENTRICITY,INCLINATION,RA_OF_ASC_NODE,ARG_OF_PERICENTER,MEAN_ANOMALY,BSTAR,MEAN_MOTION_DOT,MEAN_MOTION_DDOT,TLE_LINE0,TLE_LINE1,TLE_LINE2,SEMIMAJOR_AXIS,PERIOD,APOGEE,PERIGEE,DECAYED
53918.0,STARLINK-5012,PAYLOAD,2023-07-01 17:31:11,15.08837814,0.0001181,53.2174,42.2146,88.2037,271.909,1.6846e-05,-2e-07,0.0,0 STARLINK-5012,1 53918U 22119AJ  23182.72999645 -.00000020  00000-0  16846-4 0  9990,2 53918  53.2174  42.2146 0001181  88.2037 271.9090 15.08837814 43165,6917.887,95.438,540.569,538.935,0.0
53918.0,STARLINK-5012,PAYLOAD,2023-07-02 23:43:30,15.08852818,0.0001069,53.2175,36.5648,79.1747,280.9365,6.2726e-05,7.11e-06,0.0,0 STARLINK-5012,1 53918U 22119AJ  23183.98854882  .00000711  00000-0  62726-4 0  9996,2 53918  53.2175  36.5648 0001069  79.1747 280.9365 15.08852818 43358,6917.841,95.437,540.446,538.967,0.0
53918.0,STARLINK-5012,PAYLOAD,2023-07-03 07:40:26,15.08843321,0.0001036,53.2172,35.0778,104.9175,255.1932,7.2146e-05,8.61e-06,0.0,0 STARLINK-5012,1 53918U 22119AJ  23184.31975429  .00000861  00000-0  72146-4 0  9998,2 53918  53.2172  35.0778 0001036 104.9175 255.1932 15.08843321 43408,6917.87,95.437,540.452,539.019,0.0
53918.0,STARLINK-5012,PAYLOAD,2023-07-03 17:12:46,15.08833333,0.0001162,53.2175,33.2933,85.8458,274.2667,0.00014883,2.081e-05,0.0,0 STARLINK-5012,1 53918U 22119AJ  23184.71720068  .00002081  00000-0  14883-3 0  9998,2 53918  53.2175  33.2933 0001162  85.8458 274.2667 15.08833333 43460,6917.901,95.438,540.57,538.962,0.0
53918.0,STARLINK-5012,PAYLOAD,2023-07-03 23:34:17,15.08845015,0.0001112,53.2174,32.1041,85.4667,274.6452,0.00011227,1.5e-05,0.0,0 STARLINK-5012,1 53918U 22119AJ  23184.98215256  .00001500  00000-0  11227-3 0  9999,2 53918  53.2174  32.1041 0001112  85.4667 274.6452 15.08845015 43501,6917.865,95.437,540.499,538.961,0.0
53918.0,STARLINK-5012,PAYLOAD,2023-07-04 17:03:32,15.08841637,0.0001171,53.2177,28.8339,84.2869,275.8257,4.8066e-05,4.77e-06,0.0,0 STARLINK-5012,1 53918U 22119AJ  23185.71079613  .00000477  00000-0  48066-4 0  9990,2 53918  53.2177  28.8339 0001171  84.2869 275.8257 15.08841637 43616,6917.875,95.437,540.55,538.93,0.0
53918.0,STARLINK-5012,PAYLOAD,2023-07-05 15:18:57,15.08832965,0.0001178,53.2174,24.6686,92.2133,267.8995,1.7235e-05,-1.4e-07,0.0,0 STARLINK-5012,1 53918U 22119AJ  23186.63816247 -.00000014  00000-0  17235-4 0  9996,2 53918  53.2174  24.6686 0001178  92.2133 267.8995 15.08832965 43751,6917.902,95.438,540.582,538.952,0.0
53918.0,STARLINK-5012,PAYLOAD,2023-07-06 19:55:53,15.08843327,0.0001128,53.217,19.3166,85.5989,274.5132,9.0798e-05,1.158e-05,0.0,0 STARLINK-5012,1 53918U 22119AJ  23187.83047808  .00001158  00000-0  90798-4 0  9992,2 53918  53.2170  19.3166 0001128  85.5989 274.5132 15.08843327 43932,6917.87,95.437,540.516,538.955,0.0
53918.0,STARLINK-5012,PAYLOAD,2023-07-07 21:22:03,15.08846669,0.000102,53.2174,14.5597,88.1402,271.9706,0.00018376,2.638e-05,0.0,0 STARLINK-5012,1 53918U 22119AJ  23188.89031735  .00002638  00000-0  18376-3 0  9996,2 53918  53.2174  14.5597 0001020  88.1402 271.9706 15.08846669 44099,6917.86,95.437,540.431,539.019,0.0
53918.0,STARLINK-5012,PAYLOAD,2023-07-08 05:18:59,15.08840416,0.000139,53.2171,13.0736,97.4184,262.6967,3.5028e-05,2.7e-06,0.0,0 STARLINK-5012,1 53918U 22119AJ  23189.22152112  .00000270  00000-0  35028-4 0  9991,2 53918  53.2171  13.0736 0001390  97.4184 262.6967 15.08840416 44141,6917.879,95.438,540.706,538.783,0.0
53918.0,STARLINK-5012,PAYLOAD,2023-07-09 11:31:19,15.08838199,0.0001003,53.2178,7.4244,98.8484,261.2622,3.88e-05,3.3e-06,0.0,0 STARLINK-5012,1 53918U 22119AJ  23190.48008595  .00000330  00000-0  38800-4 0  9994,2 53918  53.2178   7.4244 0001003  98.8484 261.2622 15.08838199 44337,6917.886,95.438,540.445,539.057,0.0
53918.0,STARLINK-5012,PAYLOAD,2023-07-09 22:39:00,15.08845458,0.0001026,53.2181,5.3411,94.1734,265.9375,4.2139e-05,3.83e-06,0.0,0 STARLINK-5012,1 53918U 22119AJ  23190.94376049  .00000383  00000-0  42139-4 0  9995,2 53918  53.2181   5.3411 0001026  94.1734 265.9375 15.08845458 44406,6917.864,95.437,540.438,539.019,0.0
53918.0,STARLINK-5012,PAYLOAD,2023-07-10 11:22:06,15.08837382,0.0001013,53.2177,2.9607,94.4546,265.6562,7.9959e-05,9.85e-06,0.0,0 STARLINK-5012,1 53918U 22119AJ  23191.47368622  .00000985  00000-0  79959-4 0  9990,2 53918  53.2177   2.9607 0001013  94.4546 265.6562 15.08837382 44481,6917.888,95.438,540.454,539.053,0.0
53918.0,STARLINK-5012,PAYLOAD,2023-07-10 22:29:47,15.08849495,0.0001031,53.218,0.8797,92.232,267.879,0.0001251,1.704e-05,0.0,0 STARLINK-5012,1 53918U 22119AJ  23191.93735800  .00001704  00000-0  12510-3 0  9996,2 53918  53.2180   0.8797 0001031  92.2320 267.8790 15.08849495 44551,6917.851,95.437,540.43,539.003,0.0
53918.0,STARLINK-5012,PAYLOAD,2023-07-11 11:12:53,15.08837981,0.000106,53.2177,358.5011,89.4878,270.6236,0.0001218,1.651e-05,0.0,0 STARLINK-5012,1 53918U 22119AJ  23192.46728649  .00001651  00000-0  12180-3 0  9992,2 53918  53.2177 358.5011 0001060  89.4878 270.6236 15.08837981 44630,6917.887,95.438,540.485,539.018,0.0
53918.0,STARLINK-5012,PAYLOAD,2023-07-11 17:34:25,15.08846293,0.0001127,53.2178,357.3116,91.6145,268.4977,0.00016811,2.389e-05,0.0,0 STARLINK-5012,1 53918U 22119AJ  23192.73224031  .00002389  00000-0  16811-3 0  9992,2 53918  53.2178 357.3116 0001127  91.6145 268.4977 15.08846293 44677,6917.861,95.437,540.506,538.947,0.0
53918.0,STARLINK-5012,PAYLOAD,2023-07-12 17:25:12,15.08847299,0.0001458,53.2153,352.8506,90.6371,269.4788,0.00013575,1.874e-05,0.0,0 STARLINK-5012,1 53918U 22119AJ  23193.72584177  .00001874  00000-0  13575-3 0  9994,2 53918  53.2153 352.8506 0001458  90.6371 269.4788 15.08847299 44825,6917.858,95.437,540.732,538.714,0.0
53918.0,STARLINK-5012,PAYLOAD,2023-07-13 17:16:00,15.0884252,0.0001084,53.2173,348.3914,93.0465,267.0651,0.0001341,1.847e-05,0.0,0 STARLINK-5012,1 53918U 22119AJ  23194.71944457  .00001847  00000-0  13410-3 0  9993,2 53918  53.2173 348.3914 0001084  93.0465 267.0651 15.08842520 44977,6917.873,95.437,540.488,538.988,0.0
53918.0,STARLINK-5012,PAYLOAD,2023-07-14 10:45:14,15.08837034,0.0001039,53.2174,345.1203,86.482,273.6291,0.00011116,1.482e-05,0.0,0 STARLINK-5012,1 53918U 22119AJ  23195.44808820  .00001482  00000-0  11116-3 0  9993,2 53918  53.2174 345.1203 0001039  86.4820 273.6291 15.08837034 45085,6917.889,95.438,540.473,539.036,0.0
53918.0,STARLINK-5012,PAYLOAD,2023-07-14 18:42:10,15.08849386,0.0001099,53.2177,343.634,89.1256,270.9862,0.00064982,0.00010072,0.0,0 STARLINK-5012,1 53918U 22119AJ  23195.77928677  .00010072  00000-0  64982-3 0  9996,2 53918  53.2177 343.6340 0001099  89.1256 270.9862 15.08849386 45135,6917.852,95.437,540.477,538.956,0.0
53918.0,STARLINK-5012,PAYLOAD,2023-07-15 10:36:02,15.08833385,0.0001108,53.2172,340.66,91.4363,268.6756,2.3065e-05,7.9e-07,0.0,0 STARLINK-5012,1 53918U 22119AJ  23196.44169194  .00000079  00000-0  23065-4 0  9996,2 53918  53.2172 340.6600 0001108  91.4363 268.6756 15.08833385 45231,6917.901,95.438,540.532,538.999,0.0
53918.0,STARLINK-5012,PAYLOAD,2023-07-16 18:23:45,15.08841883,0.0001193,53.2179,334.7137,89.7939,270.319,0.00012052,1.631e-05,0.0,0 STARLINK-5012,1 53918U 22119AJ  23197.76649325  .00001631  00000-0  12052-3 0  9999,2 53918  53.2179 334.7137 0001193  89.7939 270.3190 15.08841883 45436,6917.875,95.437,540.565,538.914,0.0
53918.0,STARLINK-5012,PAYLOAD,2023-07-18 18:05:18,15.08855672,0.0001167,53.2175,325.7903,82.04,278.0725,0.00031166,4.678e-05,0.0,0 STARLINK-5012,1 53918U 22119AJ  23199.75368590  .00004678  00000-0  31166-3 0  9993,2 53918  53.2175 325.7903 0001167  82.0400 278.0725 15.08855672 45736,6917.832,95.437,540.505,538.89,0.0
53918.0,STARLINK-5012,PAYLOAD,2023-07-19 14:45:20,15.08831725,0.0001134,53.2176,321.9281,90.3557,269.7565,-7.8936e-05,-1.544e-05,0.0,0 STARLINK-5012,1 53918U 22119AJ  23200.61481703 -.00001544  00000-0 -78936-4 0  9991,2 53918  53.2176 321.9281 0001134  90.3557 269.7565 15.08831725 45869,6917.906,95.438,540.555,538.986,0.0
53918.0,STARLINK-5012,PAYLOAD,2023-07-20 13:00:44,15.0884634,0.0001115,53.2177,317.7644,88.1794,271.9326,0.0004352,6.646e-05,0.0,0 STARLINK-5012,1 53918U 22119AJ  23201.54217809  .00006646  00000-0  43520-3 0  9994,2 53918  53.2177 317.7644 0001115  88.1794 271.9326 15.08846340 46009,6917.861,95.437,540.497,538.955,0.0
53918.0,STARLINK-5012,PAYLOAD,2023-07-20 19:22:16,15.08859389,0.0001139,53.2181,316.5735,87.9169,272.1954,0.00075157,0.000117,0.0,0 STARLINK-5012,1 53918U 22119AJ  23201.80713443  .00011700  00000-0  75157-3 0  9996,2 53918  53.2181 316.5735 0001139  87.9169 272.1954 15.08859389 46042,6917.821,95.436,540.474,538.898,0.0
53918.0,STARLINK-5012,PAYLOAD,2023-07-21 08:05:21,15.0885079,0.0001581,53.2177,314.196,68.3028,291.8132,0.00043574,6.656e-05,0.0,0 STARLINK-5012,1 53918U 22119AJ  23202.33705812  .00006656  00000-0  43574-3 0  9998,2 53918  53.2177 314.1960 0001581  68.3028 291.8132 15.08850790 46121,6917.847,95.437,540.806,538.619,0.0
53918.0,STARLINK-5012,PAYLOAD,2023-07-23 18:54:37,15.08853098,0.000146,53.2167,303.1933,64.5618,295.5525,0.00090169,0.00014097,0.0,0 STARLINK-5012,1 53918U 22119AJ  23204.78793822  .00014097  00000-0  90169-3 0  9997,2 53918  53.2167 303.1933 0001460  64.5618 295.5525 15.08853098 46915,6917.84,95.437,540.715,538.695,0.0
53918.0,STARLINK-5012,PAYLOAD,2023-07-25 12:14:39,15.08836193,0.0001167,53.2159,295.4586,86.9292,273.1833,0.00021199,3.087e-05,0.0,0 STARLINK-5012,1 53918U 22119AJ  23206.51018053  .00003087  00000-0  21199-3 0  9990,2 53918  53.2159 295.4586 0001167  86.9292 273.1833 15.08836193 47173,6917.892,95.438,540.564,538.95,0.0
53918.0,STARLINK-5012,PAYLOAD,2023-07-26 08:54:40,15.088447,0.0001327,53.2159,291.5913,123.3739,236.738,0.00036364,5.505e-05,0.0,0 STARLINK-5012,1 53918U 22119AJ  23207.37129864  .00005505  00000-0  36364-3 0  9995,2 53918  53.2159 291.5913 0001327 123.3739 236.7380 15.08844700 47304,6917.866,95.437,540.649,538.813,0.0
